2026-027A               
1 67746U 26027A   26063.62659152  .00013085  00000+0  65301-3 0  9994
2 67746  97.4902 192.6940 0009837 212.2904 147.7729 15.17593496  3090
2026-027B               
1 67747U 26027B   26063.62523663  .00012886  00000+0  64129-3 0  9997
2 67747  97.4897 192.6942 0009954 214.7573 145.3011 15.17693683  3092
2026-027C               
1 67748U 26027C   26063.62388933  .00009013  00000+0  44923-3 0  9995
2 67748  97.4907 192.6990 0010301 217.3209 142.7310 15.17733867  3093
2026-027D               
1 67749U 26027D   26063.62110115  .00014910  00000+0  73408-3 0  9993
2 67749  97.4903 192.7017 0009971 222.5005 137.5458 15.18036028  3040
2026-027E               
1 67750U 26027E   26063.62116141  .00012878  00000+0  63542-3 0  9999
2 67750  97.4914 192.7047 0009171 223.3081 136.7433 15.18000768  3093
2026-027F               
1 67751U 26027F   26063.61927516  .00019934  00000+0  97289-3 0  9990
2 67751  97.4915 192.7076 0010353 223.8119 136.2295 15.18273763  3096
2026-027G               
1 67752U 26027G   26063.22449260  .00016447  00000+0  80953-3 0  9999
2 67752  97.4907 192.3130 0009405 225.8320 134.2142 15.18028016  3039
JIELONG-3 R/B           
1 67753U 26027H   26063.61070116  .00464803  23775-5  69617-3 0  9990
2 67753  97.5133 194.2307 0230158 263.5114  93.9899 15.70773457  3180
JIELONG-3 DEB           
1 67754U 26027J   26063.61180183  .01945450  24460-5  13888-2 0  9990
2 67754  97.5055 194.5336 0153353 262.9316  95.4499 15.95565534  3148
2026-028A               
1 67756U 26028A   26063.32217057 -.00000020  00000+0  00000+0 0  9994
2 67756   0.4832 289.6229 0041999 229.2573 201.2601  0.99524032   208
JAM-E JAM 1             
1 67757U 26028B   26062.45557171  .00000140  00000+0  00000+0 0  9994
2 67757   0.5072 285.5539 0002449 116.0725 318.3556  1.00266787    60
KUIPER-00159            
1 67764U 26030A   26063.55617354  .00040557  00000+0  11621-2 0  9997
2 67764  51.8845 243.9192 0004591  29.6935 330.4310 15.35505096  4306
KUIPER-00160            
1 67765U 26030B   26063.55728475  .00037178  00000+0  10721-2 0  9990
2 67765  51.8808 243.9180 0004765  42.6173 317.5182 15.35345875  4305
KUIPER-00177            
1 67766U 26030C   26063.61065876  .00030901  00000+0  86745-3 0  9994
2 67766  51.8828 243.5337 0000956  15.9752 344.1264 15.36285471  4316
KUIPER-00178            
1 67767U 26030D   26063.55897141  .00038302  00000+0  11055-2 0  9990
2 67767  51.8830 243.9344 0006054  31.7391 328.3959 15.35296462  4307
KUIPER-00180            
1 67768U 26030E   26063.58775700  .00048838  00000+0  15492-2 0  9994
2 67768  51.8795 244.1127 0014645  53.4799 306.7532 15.32107619  4307
KUIPER-00197            
1 67769U 26030F   26063.61273939  .00039526  00000+0  11095-2 0  9995
2 67769  51.8829 243.5471 0001341  52.8027 307.3081 15.36167949  4310
