[{"OBJECT_NAME":"2026-027A","OBJECT_ID":"2026-027A","EPOCH":"2026-03-04T15:02:17.507328","MEAN_MOTION":15.17593496,"ECCENTRICITY":0.00098379,"INCLINATION":97.4902,"RA_OF_ASC_NODE":192.694,"ARG_OF_PERICENTER":212.2904,"MEAN_ANOMALY":147.7729,"EPHEMERIS_TYPE":0,"CLASSIFICATION_TYPE":"U","NORAD_CAT_ID":67746,"ELEMENT_SET_NO":999,"REV_AT_EPOCH":309,"BSTAR":0.00065300576,"MEAN_MOTION_DOT":0.00013085,"MEAN_MOTION_DDOT":0},{"OBJECT_NAME":"2026-027B","OBJECT_ID":"2026-027B","EPOCH":"2026-03-04T15:00:20.444832","MEAN_MOTION":15.17693683,"ECCENTRICITY":0.00099546,"INCLINATION":97.4897,"RA_OF_ASC_NODE":192.6942,"ARG_OF_PERICENTER":214.7573,"MEAN_ANOMALY":145.3011,"EPHEMERIS_TYPE":0,"CLASSIFICATION_TYPE":"U","NORAD_CAT_ID":67747,"ELEMENT_SET_NO":999,"REV_AT_EPOCH":309,"BSTAR":0.00064129111,"MEAN_MOTION_DOT":0.00012886,"MEAN_MOTION_DDOT":0},{"OBJECT_NAME":"2026-027C","OBJECT_ID":"2026-027C","EPOCH":"2026-03-04T14:58:24.038112","MEAN_MOTION":15.17733867,"ECCENTRICITY":0.00103019,"INCLINATION":97.4907,"RA_OF_ASC_NODE":192.699,"ARG_OF_PERICENTER":217.3209,"MEAN_ANOMALY":142.731,"EPHEMERIS_TYPE":0,"CLASSIFICATION_TYPE":"U","NORAD_CAT_ID":67748,"ELEMENT_SET_NO":999,"REV_AT_EPOCH":309,"BSTAR":0.00044922911,"MEAN_MOTION_DOT":9.013e-5,"MEAN_MOTION_DDOT":0},{"OBJECT_NAME":"2026-027D","OBJECT_ID":"2026-027D","EPOCH":"2026-03-04T14:54:23.139360","MEAN_MOTION":15.18036028,"ECCENTRICITY":0.00099717,"INCLINATION":97.4903,"RA_OF_ASC_NODE":192.7017,"ARG_OF_PERICENTER":222.5005,"MEAN_ANOMALY":137.5458,"EPHEMERIS_TYPE":0,"CLASSIFICATION_TYPE":"U","NORAD_CAT_ID":67749,"ELEMENT_SET_NO":999,"REV_AT_EPOCH":304,"BSTAR":0.00073408233,"MEAN_MOTION_DOT":0.0001491,"MEAN_MOTION_DDOT":0},{"OBJECT_NAME":"2026-027E","OBJECT_ID":"2026-027E","EPOCH":"2026-03-04T14:54:28.345824","MEAN_MOTION":15.18000768,"ECCENTRICITY":0.00091716,"INCLINATION":97.4914,"RA_OF_ASC_NODE":192.7047,"ARG_OF_PERICENTER":223.3081,"MEAN_ANOMALY":136.7433,"EPHEMERIS_TYPE":0,"CLASSIFICATION_TYPE":"U","NORAD_CAT_ID":67750,"ELEMENT_SET_NO":999,"REV_AT_EPOCH":309,"BSTAR":0.00063541759,"MEAN_MOTION_DOT":0.00012878,"MEAN_MOTION_DDOT":0},{"OBJECT_NAME":"2026-027F","OBJECT_ID":"2026-027F","EPOCH":"2026-03-04T14:51:45.373824","MEAN_MOTION":15.18273763,"ECCENTRICITY":0.0010353,"INCLINATION":97.4915,"RA_OF_ASC_NODE":192.7076,"ARG_OF_PERICENTER":223.8119,"MEAN_ANOMALY":136.2295,"EPHEMERIS_TYPE":0,"CLASSIFICATION_TYPE":"U","NORAD_CAT_ID":67751,"ELEMENT_SET_NO":999,"REV_AT_EPOCH":309,"BSTAR":0.00097288621,"MEAN_MOTION_DOT":0.00019934,"MEAN_MOTION_DDOT":0},{"OBJECT_NAME":"2026-027G","OBJECT_ID":"2026-027G","EPOCH":"2026-03-04T05:23:16.160640","MEAN_MOTION":15.18028016,"ECCENTRICITY":0.00094052,"INCLINATION":97.4907,"RA_OF_ASC_NODE":192.313,"ARG_OF_PERICENTER":225.832,"MEAN_ANOMALY":134.2142,"EPHEMERIS_TYPE":0,"CLASSIFICATION_TYPE":"U","NORAD_CAT_ID":67752,"ELEMENT_SET_NO":999,"REV_AT_EPOCH":303,"BSTAR":0.00080953139,"MEAN_MOTION_DOT":0.00016447,"MEAN_MOTION_DDOT":0},{"OBJECT_NAME":"JIELONG-3 R/B","OBJECT_ID":"2026-027H","EPOCH":"2026-03-04T14:39:24.580224","MEAN_MOTION":15.70773457,"ECCENTRICITY":0.02301586,"INCLINATION":97.5133,"RA_OF_ASC_NODE":194.2307,"ARG_OF_PERICENTER":263.5114,"MEAN_ANOMALY":93.9899,"EPHEMERIS_TYPE":0,"CLASSIFICATION_TYPE":"U","NORAD_CAT_ID":67753,"ELEMENT_SET_NO":999,"REV_AT_EPOCH":318,"BSTAR":0.00069616886,"MEAN_MOTION_DOT":0.00464803,"MEAN_MOTION_DDOT":2.37746e-6},{"OBJECT_NAME":"JIELONG-3 DEB","OBJECT_ID":"2026-027J","EPOCH":"2026-03-04T14:40:59.678112","MEAN_MOTION":15.95565534,"ECCENTRICITY":0.01533531,"INCLINATION":97.5055,"RA_OF_ASC_NODE":194.5336,"ARG_OF_PERICENTER":262.9316,"MEAN_ANOMALY":95.4499,"EPHEMERIS_TYPE":0,"CLASSIFICATION_TYPE":"U","NORAD_CAT_ID":67754,"ELEMENT_SET_NO":999,"REV_AT_EPOCH":314,"BSTAR":0.0013887799,"MEAN_MOTION_DOT":0.0194545,"MEAN_MOTION_DDOT":2.446034e-6},{"OBJECT_NAME":"2026-028A","OBJECT_ID":"2026-028A","EPOCH":"2026-03-04T07:43:55.537248","MEAN_MOTION":0.99524032,"ECCENTRICITY":0.00419996,"INCLINATION":0.4832,"RA_OF_ASC_NODE":289.6229,"ARG_OF_PERICENTER":229.2573,"MEAN_ANOMALY":201.2601,"EPHEMERIS_TYPE":0,"CLASSIFICATION_TYPE":"U","NORAD_CAT_ID":67756,"ELEMENT_SET_NO":999,"REV_AT_EPOCH":20,"BSTAR":0,"MEAN_MOTION_DOT":-2.0e-7,"MEAN_MOTION_DDOT":0},{"OBJECT_NAME":"JAM-E JAM 1","OBJECT_ID":"2026-028B","EPOCH":"2026-03-03T10:56:01.395744","MEAN_MOTION":1.00266787,"ECCENTRICITY":0.00024495,"INCLINATION":0.5072,"RA_OF_ASC_NODE":285.5539,"ARG_OF_PERICENTER":116.0725,"MEAN_ANOMALY":318.3556,"EPHEMERIS_TYPE":0,"CLASSIFICATION_TYPE":"U","NORAD_CAT_ID":67757,"ELEMENT_SET_NO":999,"REV_AT_EPOCH":6,"BSTAR":0,"MEAN_MOTION_DOT":1.4e-6,"MEAN_MOTION_DDOT":0},{"OBJECT_NAME":"KUIPER-00159","OBJECT_ID":"2026-030A","EPOCH":"2026-03-04T13:20:53.393856","MEAN_MOTION":15.35505096,"ECCENTRICITY":0.00045911,"INCLINATION":51.8845,"RA_OF_ASC_NODE":243.9192,"ARG_OF_PERICENTER":29.6935,"MEAN_ANOMALY":330.431,"EPHEMERIS_TYPE":0,"CLASSIFICATION_TYPE":"U","NORAD_CAT_ID":67764,"ELEMENT_SET_NO":999,"REV_AT_EPOCH":430,"BSTAR":0.0011620826,"MEAN_MOTION_DOT":0.00040557,"MEAN_MOTION_DDOT":0},{"OBJECT_NAME":"KUIPER-00160","OBJECT_ID":"2026-030B","EPOCH":"2026-03-04T13:22:29.402400","MEAN_MOTION":15.35345875,"ECCENTRICITY":0.00047657,"INCLINATION":51.8808,"RA_OF_ASC_NODE":243.918,"ARG_OF_PERICENTER":42.6173,"MEAN_ANOMALY":317.5182,"EPHEMERIS_TYPE":0,"CLASSIFICATION_TYPE":"U","NORAD_CAT_ID":67765,"ELEMENT_SET_NO":999,"REV_AT_EPOCH":430,"BSTAR":0.0010720641,"MEAN_MOTION_DOT":0.00037178,"MEAN_MOTION_DDOT":0},{"OBJECT_NAME":"KUIPER-00177","OBJECT_ID":"2026-030C","EPOCH":"2026-03-04T14:39:20.916864","MEAN_MOTION":15.36285471,"ECCENTRICITY":9.567e-5,"INCLINATION":51.8828,"RA_OF_ASC_NODE":243.5337,"ARG_OF_PERICENTER":15.9752,"MEAN_ANOMALY":344.1264,"EPHEMERIS_TYPE":0,"CLASSIFICATION_TYPE":"U","NORAD_CAT_ID":67766,"ELEMENT_SET_NO":999,"REV_AT_EPOCH":431,"BSTAR":0.00086744808,"MEAN_MOTION_DOT":0.00030901,"MEAN_MOTION_DDOT":0},{"OBJECT_NAME":"KUIPER-00178","OBJECT_ID":"2026-030D","EPOCH":"2026-03-04T13:24:55.129824","MEAN_MOTION":15.35296462,"ECCENTRICITY":0.00060542,"INCLINATION":51.883,"RA_OF_ASC_NODE":243.9344,"ARG_OF_PERICENTER":31.7391,"MEAN_ANOMALY":328.3959,"EPHEMERIS_TYPE":0,"CLASSIFICATION_TYPE":"U","NORAD_CAT_ID":67767,"ELEMENT_SET_NO":999,"REV_AT_EPOCH":430,"BSTAR":0.0011055068,"MEAN_MOTION_DOT":0.00038302,"MEAN_MOTION_DDOT":0},{"OBJECT_NAME":"KUIPER-00180","OBJECT_ID":"2026-030E","EPOCH":"2026-03-04T14:06:22.204800","MEAN_MOTION":15.32107619,"ECCENTRICITY":0.00146455,"INCLINATION":51.8795,"RA_OF_ASC_NODE":244.1127,"ARG_OF_PERICENTER":53.4799,"MEAN_ANOMALY":306.7532,"EPHEMERIS_TYPE":0,"CLASSIFICATION_TYPE":"U","NORAD_CAT_ID":67768,"ELEMENT_SET_NO":999,"REV_AT_EPOCH":430,"BSTAR":0.0015492499,"MEAN_MOTION_DOT":0.00048838,"MEAN_MOTION_DDOT":0},{"OBJECT_NAME":"KUIPER-00197","OBJECT_ID":"2026-030F","EPOCH":"2026-03-04T14:42:20.683296","MEAN_MOTION":15.36167949,"ECCENTRICITY":0.00013417,"INCLINATION":51.8829,"RA_OF_ASC_NODE":243.5471,"ARG_OF_PERICENTER":52.8027,"MEAN_ANOMALY":307.3081,"EPHEMERIS_TYPE":0,"CLASSIFICATION_TYPE":"U","NORAD_CAT_ID":67769,"ELEMENT_SET_NO":999,"REV_AT_EPOCH":431,"BSTAR":0.0011094867,"MEAN_MOTION_DOT":0.00039526,"MEAN_MOTION_DDOT":0}]
